[{"OBJECT_NAME":"NETSAT-3","OBJECT_ID":"2020-068V","EPOCH":"2023-04-26T14:59:36.701376","MEAN_MOTION":15.0682961,"ECCENTRICITY":0.0010682,"INCLINATION":97.7564,"RA_OF_ASC_NODE":61.8328,"ARG_OF_PERICENTER":6.078,"MEAN_ANOMALY":354.0552,"EPHEMERIS_TYPE":0,"CLASSIFICATION_TYPE":"U","NORAD_CAT_ID":46505,"ELEMENT_SET_NO":999,"REV_AT_EPOCH":14114,"BSTAR":0.00060777,"MEAN_MOTION_DOT":9.011e-5,"MEAN_MOTION_DDOT":0},{"OBJECT_NAME":"NETSAT-1","OBJECT_ID":"2020-068W","EPOCH":"2023-04-26T09:26:04.813728","MEAN_MOTION":15.06591004,"ECCENTRICITY":0.0010053,"INCLINATION":97.7555,"RA_OF_ASC_NODE":61.4917,"ARG_OF_PERICENTER":12.5293,"MEAN_ANOMALY":347.618,"EPHEMERIS_TYPE":0,"CLASSIFICATION_TYPE":"U","NORAD_CAT_ID":46506,"ELEMENT_SET_NO":999,"REV_AT_EPOCH":14110,"BSTAR":0.00058457,"MEAN_MOTION_DOT":8.607e-5,"MEAN_MOTION_DDOT":0},{"OBJECT_NAME":"NETSAT-2","OBJECT_ID":"2020-068X","EPOCH":"2023-04-26T22:11:04.209792","MEAN_MOTION":15.06894097,"ECCENTRICITY":0.0009303,"INCLINATION":97.7561,"RA_OF_ASC_NODE":62.0437,"ARG_OF_PERICENTER":17.4248,"MEAN_ANOMALY":342.7257,"EPHEMERIS_TYPE":0,"CLASSIFICATION_TYPE":"U","NORAD_CAT_ID":46507,"ELEMENT_SET_NO":999,"REV_AT_EPOCH":14113,"BSTAR":0.00066698,"MEAN_MOTION_DOT":9.911e-5,"MEAN_MOTION_DDOT":0},{"OBJECT_NAME":"SAI-1 NANOCONNECT-2","OBJECT_ID":"2021-015C","EPOCH":"2023-04-27T04:47:46.136256","MEAN_MOTION":15.43824353,"ECCENTRICITY":0.0007544,"INCLINATION":97.3868,"RA_OF_ASC_NODE":199.5303,"ARG_OF_PERICENTER":65.2883,"MEAN_ANOMALY":294.9149,"EPHEMERIS_TYPE":0,"CLASSIFICATION_TYPE":"U","NORAD_CAT_ID":47701,"ELEMENT_SET_NO":999,"REV_AT_EPOCH":12027,"BSTAR":0.00099294,"MEAN_MOTION_DOT":0.00045144,"MEAN_MOTION_DDOT":0},{"OBJECT_NAME":"WILDTRACKCUBE-SIMBA","OBJECT_ID":"2021-022K","EPOCH":"2023-04-27T02:07:34.672800","MEAN_MOTION":15.11426862,"ECCENTRICITY":0.002041,"INCLINATION":97.5016,"RA_OF_ASC_NODE":15.0805,"ARG_OF_PERICENTER":147.6038,"MEAN_ANOMALY":320.1195,"EPHEMERIS_TYPE":0,"CLASSIFICATION_TYPE":"U","NORAD_CAT_ID":47941,"ELEMENT_SET_NO":999,"REV_AT_EPOCH":11528,"BSTAR":0.00045574,"MEAN_MOTION_DOT":7.678e-5,"MEAN_MOTION_DDOT":0},{"OBJECT_NAME":"BEESAT-6","OBJECT_ID":"2021-022AB","EPOCH":"2023-04-26T23:11:44.444832","MEAN_MOTION":15.17285984,"ECCENTRICITY":0.0018603,"INCLINATION":97.4993,"RA_OF_ASC_NODE":16.2907,"ARG_OF_PERICENTER":143.423,"MEAN_ANOMALY":216.8278,"EPHEMERIS_TYPE":0,"CLASSIFICATION_TYPE":"U","NORAD_CAT_ID":47957,"ELEMENT_SET_NO":999,"REV_AT_EPOCH":11516,"BSTAR":0.0008149,"MEAN_MOTION_DOT":0.00016261,"MEAN_MOTION_DDOT":0},{"OBJECT_NAME":"SMOG-1","OBJECT_ID":"2021-022AJ","EPOCH":"2023-04-26T23:08:46.669920","MEAN_MOTION":15.18980342,"ECCENTRICITY":0.0017339,"INCLINATION":97.5025,"RA_OF_ASC_NODE":18.1484,"ARG_OF_PERICENTER":130.6653,"MEAN_ANOMALY":229.6092,"EPHEMERIS_TYPE":0,"CLASSIFICATION_TYPE":"U","NORAD_CAT_ID":47964,"ELEMENT_SET_NO":999,"REV_AT_EPOCH":11429,"BSTAR":0.00083231,"MEAN_MOTION_DOT":0.00017433,"MEAN_MOTION_DDOT":0},{"OBJECT_NAME":"BEESAT-5","OBJECT_ID":"2021-022AM","EPOCH":"2023-04-26T15:47:13.975296","MEAN_MOTION":15.18515802,"ECCENTRICITY":0.0018309,"INCLINATION":97.4927,"RA_OF_ASC_NODE":16.12,"ARG_OF_PERICENTER":142.2458,"MEAN_ANOMALY":218.0065,"EPHEMERIS_TYPE":0,"CLASSIFICATION_TYPE":"U","NORAD_CAT_ID":48083,"ELEMENT_SET_NO":999,"REV_AT_EPOCH":11426,"BSTAR":0.00092015,"MEAN_MOTION_DOT":0.00019035,"MEAN_MOTION_DDOT":0},{"OBJECT_NAME":"BEESAT-7","OBJECT_ID":"2021-022AN","EPOCH":"2023-04-26T23:41:01.119264","MEAN_MOTION":15.17724792,"ECCENTRICITY":0.0018357,"INCLINATION":97.4986,"RA_OF_ASC_NODE":16.3939,"ARG_OF_PERICENTER":142.4553,"MEAN_ANOMALY":217.7967,"EPHEMERIS_TYPE":0,"CLASSIFICATION_TYPE":"U","NORAD_CAT_ID":48084,"ELEMENT_SET_NO":999,"REV_AT_EPOCH":11389,"BSTAR":0.00087017,"MEAN_MOTION_DOT":0.00017589,"MEAN_MOTION_DDOT":0},{"OBJECT_NAME":"BEESAT-8","OBJECT_ID":"2021-022AP","EPOCH":"2023-04-26T22:47:49.998336","MEAN_MOTION":15.15111041,"ECCENTRICITY":0.0019066,"INCLINATION":97.5029,"RA_OF_ASC_NODE":16.0382,"ARG_OF_PERICENTER":144.4132,"MEAN_ANOMALY":215.8376,"EPHEMERIS_TYPE":0,"CLASSIFICATION_TYPE":"U","NORAD_CAT_ID":48085,"ELEMENT_SET_NO":999,"REV_AT_EPOCH":11442,"BSTAR":0.00057615,"MEAN_MOTION_DOT":0.00010781,"MEAN_MOTION_DDOT":0},{"OBJECT_NAME":"LEDSAT","OBJECT_ID":"2021-073D","EPOCH":"2023-04-27T03:41:50.680320","MEAN_MOTION":15.13264264,"ECCENTRICITY":0.0023059,"INCLINATION":97.4841,"RA_OF_ASC_NODE":188.9197,"ARG_OF_PERICENTER":297.6336,"MEAN_ANOMALY":62.2554,"EPHEMERIS_TYPE":0,"CLASSIFICATION_TYPE":"U","NORAD_CAT_ID":49069,"ELEMENT_SET_NO":999,"REV_AT_EPOCH":9318,"BSTAR":0.00048592,"MEAN_MOTION_DOT":8.635e-5,"MEAN_MOTION_DDOT":0},{"OBJECT_NAME":"1998-067UL","OBJECT_ID":"1998-067UL","EPOCH":"2023-04-26T15:28:51.519072","MEAN_MOTION":15.91948397,"ECCENTRICITY":0.0013187,"INCLINATION":51.6257,"RA_OF_ASC_NODE":209.2758,"ARG_OF_PERICENTER":334.0595,"MEAN_ANOMALY":25.9749,"EPHEMERIS_TYPE":0,"CLASSIFICATION_TYPE":"U","NORAD_CAT_ID":54534,"ELEMENT_SET_NO":999,"REV_AT_EPOCH":2278,"BSTAR":0.0012596,"MEAN_MOTION_DOT":0.00427828,"MEAN_MOTION_DDOT":8.133e-5},{"OBJECT_NAME":"1998-067UN","OBJECT_ID":"1998-067UN","EPOCH":"2023-04-27T01:49:35.141952","MEAN_MOTION":15.8291928,"ECCENTRICITY":0.0011775,"INCLINATION":51.6369,"RA_OF_ASC_NODE":209.0994,"ARG_OF_PERICENTER":326.8288,"MEAN_ANOMALY":94.9715,"EPHEMERIS_TYPE":0,"CLASSIFICATION_TYPE":"U","NORAD_CAT_ID":54536,"ELEMENT_SET_NO":999,"REV_AT_EPOCH":2278,"BSTAR":0.0010903,"MEAN_MOTION_DOT":0.00244245,"MEAN_MOTION_DDOT":0},{"OBJECT_NAME":"1998-067UP","OBJECT_ID":"1998-067UP","EPOCH":"2023-04-27T05:01:55.562304","MEAN_MOTION":15.93248849,"ECCENTRICITY":0.0013435,"INCLINATION":51.6283,"RA_OF_ASC_NODE":206.1055,"ARG_OF_PERICENTER":335.7815,"MEAN_ANOMALY":112.8012,"EPHEMERIS_TYPE":0,"CLASSIFICATION_TYPE":"U","NORAD_CAT_ID":54537,"ELEMENT_SET_NO":999,"REV_AT_EPOCH":2287,"BSTAR":0.0012645,"MEAN_MOTION_DOT":0.00460203,"MEAN_MOTION_DDOT":9.4211e-5},{"OBJECT_NAME":"LORIS","OBJECT_ID":"1998-067US","EPOCH":"2023-04-26T20:59:47.476320","MEAN_MOTION":15.80497069,"ECCENTRICITY":0.0011325,"INCLINATION":51.632,"RA_OF_ASC_NODE":212.3684,"ARG_OF_PERICENTER":328.3166,"MEAN_ANOMALY":31.7153,"EPHEMERIS_TYPE":0,"CLASSIFICATION_TYPE":"U","NORAD_CAT_ID":55125,"ELEMENT_SET_NO":999,"REV_AT_EPOCH":1858,"BSTAR":0.0011997,"MEAN_MOTION_DOT":0.00239929,"MEAN_MOTION_DDOT":0}]
