NETSAT-3                
1 46505U 20068V   23116.62473034  .00009011  00000+0  60777-3 0  9998
2 46505  97.7564  61.8328 0010682   6.0780 354.0552 15.06829610141149
NETSAT-1                
1 46506U 20068W   23116.39311127  .00008607  00000+0  58457-3 0  9999
2 46506  97.7555  61.4917 0010053  12.5293 347.6180 15.06591004141107
NETSAT-2                
1 46507U 20068X   23116.92435428  .00009911  00000+0  66698-3 0  9995
2 46507  97.7561  62.0437 0009303  17.4248 342.7257 15.06894097141131
SAI-1 NANOCONNECT-2     
1 47701U 21015C   23117.19983954  .00045144  00000+0  99294-3 0  9993
2 47701  97.3868 199.5303 0007544  65.2883 294.9149 15.43824353120272
WILDTRACKCUBE-SIMBA     
1 47941U 21022K   23117.08859575  .00007678  00000+0  45574-3 0  9998
2 47941  97.5016  15.0805 0020410 147.6038 320.1195 15.11426862115284
BEESAT-6                
1 47957U 21022AB  23116.96648663  .00016261  00000+0  81490-3 0  9990
2 47957  97.4993  16.2907 0018603 143.4230 216.8278 15.17285984115163
SMOG-1                  
1 47964U 21022AJ  23116.96442905  .00017433  00000+0  83231-3 0  9996
2 47964  97.5025  18.1484 0017339 130.6653 229.6092 15.18980342114291
BEESAT-5                
1 48083U 21022AM  23116.65780064  .00019035  00000+0  92015-3 0  9996
2 48083  97.4927  16.1200 0018309 142.2458 218.0065 15.18515802114262
BEESAT-7                
1 48084U 21022AN  23116.98681851  .00017589  00000+0  87017-3 0  9995
2 48084  97.4986  16.3939 0018357 142.4553 217.7967 15.17724792113894
BEESAT-8                
1 48085U 21022AP  23116.94988424  .00010781  00000+0  57615-3 0  9996
2 48085  97.5029  16.0382 0019066 144.4132 215.8376 15.15111041114424
LEDSAT                  
1 49069U 21073D   23117.15405880  .00008635  00000+0  48592-3 0  9998
2 49069  97.4841 188.9197 0023059 297.6336  62.2554 15.13264264 93180
1998-067UL              
1 54534U 98067UL  23116.64504073  .00427828  81330-4  12596-2 0  9998
2 54534  51.6257 209.2758 0013187 334.0595  25.9749 15.91948397 22782
1998-067UN              
1 54536U 98067UN  23117.07610118  .00244245  00000+0  10903-2 0  9996
2 54536  51.6369 209.0994 0011775 326.8288  94.9715 15.82919280 22785
1998-067UP              
1 54537U 98067UP  23117.20967086  .00460203  94211-4  12645-2 0  9992
2 54537  51.6283 206.1055 0013435 335.7815 112.8012 15.93248849 22875
LORIS                   
1 55125U 98067US  23116.87485505  .00239929  00000+0  11997-2 0  9995
2 55125  51.6320 212.3684 0011325 328.3166  31.7153 15.80497069 18585
